TIANYAN 01              
1 44881U 19093C   24059.57263592  .00001212  00000+0  15432-3 0  9999
2 44881  97.8365 138.4725 0013687 325.8603  34.1729 14.83316885226796
RS-44 & BREEZE-KM R/B   
1 44909U 19096E   24059.57949613  .00000030  00000+0  81253-4 0  9990
2 44909  82.5254 177.5922 0216457 307.6461  50.5172 12.79726847194950
BY70-2                  
1 45857U 20042B   24059.59655733  .00045624  00000+0  28964-2 0  9991
2 45857  97.9135 148.1701 0008648 232.2381 127.8063 15.08683672197925
SALSAT                  
1 46495U 20068K   24059.42740954  .00007499  00000+0  44996-3 0  9992
2 46495  97.8041  16.2216 0013517 335.5071  24.5514 15.11166175187728
RADFXSAT-2 (AO-109)     
1 47311U 21002C   24059.52038263  .00134727  00000+0  10117-2 0  9995
2 47311  60.6684 135.7195 0025243  66.6910 293.6853 15.71434813174031
UVSQ-SAT                
1 47438U 21006AB  24059.43674645  .00030063  00000+0  82951-3 0  9993
2 47438  97.3442 119.3220 0006582 244.8478 115.2084 15.37020720171820
LEDSAT                  
1 49069U 21073D   24059.43668350  .00011689  00000+0  53341-3 0  9999
2 49069  97.4493 131.6070 0019964 311.1966  48.7547 15.20591342139752
XW-3 (CAS-9)            
1 50466U 21131B   24059.58176867  .00000751  00000+0  25560-3 0  9990
2 50466  98.5319 145.1821 0005305  95.6263 264.5530 14.39389033114233
TEVEL-3                 
1 50988U 22002E   24059.57022186  .00049886  00000+0  11047-2 0  9996
2 50988  97.3950 132.1401 0004455  43.8146 316.3454 15.43618248118032
TEVEL-8                 
1 50989U 22002F   24059.47285507  .00054541  00000+0  12118-2 0  9998
2 50989  97.3968 132.1261 0004411  43.2502 316.9092 15.43497514118011
TEVEL-5                 
1 50998U 22002Q   24059.56583052  .00057279  00000+0  11790-2 0  9990
2 50998  97.3943 132.9915 0004886  32.9600 327.1953 15.45742449118098
TEVEL-6                 
1 50999U 22002R   24059.56658982  .00057089  00000+0  11772-2 0  9995
2 50999  97.3941 132.9760 0004872  32.6684 327.4865 15.45690729118097
TEVEL-1                 
1 51013U 22002AF  24059.46134941  .00052549  00000+0  11676-2 0  9995
2 51013  97.3943 131.9189 0004298  44.5224 315.6369 15.43505868118012
TEVEL-7                 
1 51062U 22002CG  24059.46731916  .00052381  00000+0  11612-2 0  9998
2 51062  97.3962 132.0917 0004410  43.6517 316.5079 15.43574503118019
TEVEL-4                 
1 51063U 22002CH  24059.55471260  .00052231  00000+0  11649-2 0  9996
2 51063  97.3963 132.1192 0004337  42.0303 318.1276 15.43395422118020
TEVEL-2                 
1 51069U 22002CP  24059.56999062  .00050126  00000+0  11090-2 0  9999
2 51069  97.3947 132.1066 0004386  43.1141 317.0450 15.43644771118031
GREENCUBE               
1 53106U 22080B   24052.39186089 -.00000003  00000+0  00000+0 0  9996
2 53106  70.1294 233.0989 0008303 129.7166 230.4226  6.42557771 37766
CYCLOPS (RS29S)         
1 53373U 22096D   24058.83908905  .01346535  11698-2  16285-2 0  9999
2 53373  97.3729 339.3467 0008482 125.9734 234.2337 16.08428195 87449
MONITOR-1 (RS32S)       
1 53374U 22096E   24059.14854753  .00353284  00000+0  14595-2 0  9998
2 53374  97.3822 338.1110 0006315 102.1550 258.0428 15.84964370 87406
KUZBASS-300 (RS34S)     
1 53375U 22096F   24059.56332069  .00098014  00000+0  10948-2 0  9991
2 53375  97.3942 335.7876 0003965  91.0226 269.1486 15.62439145 87271
UTMN (RS23S)            
1 53376U 22096G   24059.54656835  .00110267  00000+0  10825-2 0  9999
2 53376  97.3919 336.3795 0004455  85.4713 274.7056 15.65689074 87317
MIET-AIS (RS28S)        
1 53377U 22096H   24059.55492437  .00074971  00000+0  97202-3 0  9993
2 53377  97.3967 335.2382 0003703  87.7810 272.3870 15.58609164 87232
KAI-1 (RS26S)           
1 53378U 22096J   24059.57295513  .00043171  00000+0  71870-3 0  9993
2 53378  97.4010 333.9335 0003241  71.6485 288.5120 15.51905740 87142
ISOI (RS19S)            
1 53381U 22096M   24059.57870595  .00075672  00000+0  92737-3 0  9992
2 53381  97.3985 335.9484 0003881 109.0180 251.1497 15.60098691 87287
CUBESX-HSE-2 (RS21S)    
1 53383U 22096P   24059.58751159  .00105807  00000+0  10609-2 0  9990
2 53383  97.3927 336.6567 0004849 116.8710 243.3046 15.65168442 87331
SIREN (RS30S)           
1 53384U 22096Q   24059.58752572  .00058816  00000+0  84254-3 0  9996
2 53384  97.3983 335.0668 0003685 121.6513 238.5101 15.55986434 87225
CAS-5A (FO-118)         
1 54684U 22167C   24059.60984488  .00020669  00000+0  86858-3 0  9992
2 54684  97.5894 202.5389 0011180 168.7552 191.3936 15.23401156 67581
STRATOSAT-TK 1 (RS52S)  
1 57167U 23091B   24059.57889783  .00009745  00000+0  62405-3 0  9990
2 57167  97.6275 113.1889 0017319 132.5452 227.7242 15.08639593 37014
UMKA 1 (RS40S)          
1 57172U 23091G   24059.55548285  .00005128  00000+0  35516-3 0  9997
2 57172  97.6284 112.7578 0018277 132.6481 227.6289 15.05959648 36985
CUBESX-HSE 3 (RS42S)    
1 57178U 23091N   24059.58602247  .00005622  00000+0  38122-3 0  9990
2 57178  97.6315 112.9899 0019190 127.3739 232.9240 15.06690680 36992
MONITOR-4 (RS57S)       
1 57182U 23091S   24059.61218527  .00005969  00000+0  40769-3 0  9997
2 57182  97.6311 112.9182 0019528 128.0916 232.2076 15.06391631 36992
MONITOR-2 (RS39S)       
1 57184U 23091U   24059.60211608  .00003769  00000+0  26001-3 0  9990
2 57184  97.6318 113.1003 0016068 121.2273 239.0531 15.06303335 37001
SVYATOBOR 1 (RS60S)     
1 57187U 23091X   24059.58207715  .00004954  00000+0  33173-3 0  9999
2 57187  97.6308 113.2841 0015362 119.8981 240.3775 15.07272998 37016
VIZARD-METEO (RS38S)    
1 57189U 23091Z   24059.48785911  .00007666  00000+0  49827-3 0  9995
2 57189  97.6309 113.3845 0014273 118.2405 242.0266 15.08208442 37016
NANOZOND 1 (RS49S)      
1 57190U 23091AA  24059.56657239  .00009988  00000+0  62231-3 0  9990
2 57190  97.6278 113.6575 0012596 123.2510 236.9927 15.09699588 37040
POLYTECH-UNIVERSE 3 (R*)
1 57191U 23091AB  24059.59954926  .00003897  00000+0  26913-3 0  9997
2 57191  97.6283 112.8469 0021291 138.0285 222.2579 15.06167056 36996
UTMN 2 (RS27S)          
1 57203U 23091AP  24059.58296055  .00005647  00000+0  37135-3 0  9995
2 57203  97.6300 113.4111 0014668 118.3605 241.9104 15.07892393 37025
ARCCUBE 1 (RS25S)       
1 57205U 23091AR  24059.60253164  .00010184  00000+0  62471-3 0  9997
2 57205  97.6259 113.7041 0013033 123.9369 236.3102 15.10256555 37056
KUZGTU 1 (RS47S)        
1 57217U 23091AV  24059.58703774  .00005572  00000+0  37860-3 0  9993
2 57217  97.6290 112.9100 0019122 128.5346 231.7599 15.06619474 36991
HADES-D (SO-121)        
1 58567U 23174CY  24059.47229174  .00027648  00000+0  13135-2 0  9995
2 58567  97.4662 135.7655 0014020 252.9381 107.0318 15.19102103 17074
